[{"OBJECT_NAME":"STARLINK-2209","OBJECT_ID":"2021-017BG","EPOCH":"2026-03-10T00:00:02.999808","MEAN_MOTION":15.44197339,"ECCENTRICITY":0.00010832,"INCLINATION":53.1594,"RA_OF_ASC_NODE":201.998,"ARG_OF_PERICENTER":72.9426,"MEAN_ANOMALY":205.8018,"EPHEMERIS_TYPE":0,"CLASSIFICATION_TYPE":"U","NORAD_CAT_ID":47776,"ELEMENT_SET_NO":999,"REV_AT_EPOCH":581,"BSTAR":9.0478385e-5,"MEAN_MOTION_DOT":3.798e-5,"MEAN_MOTION_DDOT":0},{"OBJECT_NAME":"BRO-6","OBJECT_ID":"2022-047AE","EPOCH":"2026-03-09T22:39:29.581632","MEAN_MOTION":15.44429794,"ECCENTRICITY":0.00055745,"INCLINATION":97.3417,"RA_OF_ASC_NODE":158.5545,"ARG_OF_PERICENTER":78.0361,"MEAN_ANOMALY":282.1512,"EPHEMERIS_TYPE":0,"CLASSIFICATION_TYPE":"U","NORAD_CAT_ID":52422,"ELEMENT_SET_NO":999,"REV_AT_EPOCH":21580,"BSTAR":0.00044779472,"MEAN_MOTION_DOT":0.00020658,"MEAN_MOTION_DDOT":0}]
